NORAD_CAT_ID,OBJECT_NAME,OBJECT_TYPE,EPOCH,MEAN_MOTION,ECCENTRICITY,INCLINATION,RA_OF_ASC_NODE,ARG_OF_PERICENTER,MEAN_ANOMALY,BSTAR,MEAN_MOTION_DOT,MEAN_MOTION_DDOT,TLE_LINE0,TLE_LINE1,TLE_LINE2,SEMIMAJOR_AXIS,PERIOD,APOGEE,PERIGEE,DECAYED
55954.0,STARLINK-5892,PAYLOAD,2023-11-19 21:46:26,14.98329337,0.0002765,70.0008,224.3019,271.4028,88.6814,6.9651e-05,7.38e-06,0.0,0 STARLINK-5892,1 55954U 23037AS  23323.90724860  .00000738  00000-0  69651-4 0  9991,2 55954  70.0008 224.3019 0002765 271.4028  88.6814 14.98329337 38533,6950.195,96.107,573.982,570.138,0.0
55954.0,STARLINK-5892,PAYLOAD,2023-11-20 10:35:30,14.98331758,0.0002528,70.0018,222.9548,286.4396,73.6485,6.2186e-06,-1.9e-07,0.0,0 STARLINK-5892,1 55954U 23037AS  23324.44132987 -.00000019  00000-0  62186-5 0  9994,2 55954  70.0018 222.9548 0002528 286.4396  73.6485 14.98331758 38613,6950.187,96.107,573.809,570.295,0.0
55954.0,STARLINK-5892,PAYLOAD,2023-11-20 20:12:19,14.98331284,0.0002635,70.0006,221.9459,270.0616,90.0241,-2.3898e-05,-3.78e-06,0.0,0 STARLINK-5892,1 55954U 23037AS  23324.84188813 -.00000378  00000-0 -23898-4 0  9992,2 55954  70.0006 221.9459 0002635 270.0616  90.0241 14.98331284 39015,6950.189,96.107,573.885,570.223,0.0
55954.0,STARLINK-5892,PAYLOAD,2023-11-20 21:48:27,14.98330342,0.0002642,70.0007,221.7772,269.2292,90.8564,-3.2381e-05,-4.79e-06,0.0,0 STARLINK-5892,1 55954U 23037AS  23324.90864875 -.00000479  00000-0 -32381-4 0  9997,2 55954  70.0007 221.7772 0002642 269.2292  90.8564 14.98330342 38682,6950.192,96.107,573.893,570.221,0.0
55954.0,STARLINK-5892,PAYLOAD,2023-11-21 10:37:31,14.9832978,0.0002408,70.0013,220.4301,274.8355,85.2529,-6.4572e-05,-8.63e-06,0.0,0 STARLINK-5892,1 55954U 23037AS  23325.44273001 -.00000863  00000-0 -64572-4 0  9996,2 55954  70.0013 220.4301 0002408 274.8355  85.2529 14.98329780 38767,6950.194,96.107,573.732,570.385,0.0
55954.0,STARLINK-5892,PAYLOAD,2023-11-21 20:14:20,14.98329324,0.0002752,70.0004,219.4199,272.7201,87.3643,-6.8221e-06,-1.74e-06,0.0,0 STARLINK-5892,1 55954U 23037AS  23325.84328749 -.00000174  00000-0 -68221-5 0  9991,2 55954  70.0004 219.4199 0002752 272.7201  87.3643 14.98329324 38820,6950.195,96.107,573.973,570.147,0.0
55954.0,STARLINK-5892,PAYLOAD,2023-11-22 02:38:51,14.98336046,0.0002581,70.0006,218.7485,259.8382,100.2486,3.1072e-05,2.78e-06,0.0,0 STARLINK-5892,1 55954U 23037AS  23326.11032097  .00000278  00000-0  31072-4 0  9996,2 55954  70.0006 218.7485 0002581 259.8382 100.2486 14.98336046 39200,6950.174,96.107,573.833,570.245,0.0
55954.0,STARLINK-5892,PAYLOAD,2023-11-22 18:40:12,14.9832732,0.0002449,70.0013,217.0667,251.9849,108.1043,-2.265e-05,-3.63e-06,0.0,0 STARLINK-5892,1 55954U 23037AS  23326.77792720 -.00000363  00000-0 -22650-4 0  9993,2 55954  70.0013 217.0667 0002449 251.9849 108.1043 14.98327320 39308,6950.201,96.107,573.768,570.364,0.0
55954.0,STARLINK-5892,PAYLOAD,2023-11-22 20:16:20,14.98327306,0.0002485,70.0012,216.8981,253.7717,106.3169,-2.3018e-05,-3.68e-06,0.0,0 STARLINK-5892,1 55954U 23037AS  23326.84468704 -.00000368  00000-0 -23018-4 0  9997,2 55954  70.0012 216.8981 0002485 253.7717 106.3169 14.98327306 38972,6950.201,96.107,573.793,570.339,0.0
55954.0,STARLINK-5892,PAYLOAD,2023-11-23 02:40:53,14.98325178,0.0002495,70.0015,216.2255,244.2417,115.8484,-4.0655e-05,-5.78e-06,0.0,0 STARLINK-5892,1 55954U 23037AS  23327.11172988 -.00000578  00000-0 -40655-4 0  9993,2 55954  70.0015 216.2255 0002495 244.2417 115.8484 14.98325178 39012,6950.208,96.107,573.807,570.339,0.0
55954.0,STARLINK-5892,PAYLOAD,2023-11-23 20:18:22,14.98318694,0.0002553,70.0004,214.3717,262.9005,97.1864,4.3968e-05,4.32e-06,0.0,0 STARLINK-5892,1 55954U 23037AS  23327.84609443  .00000432  00000-0  43968-4 0  9991,2 55954  70.0004 214.3717 0002553 262.9005  97.1864 14.98318694 39465,6950.228,96.108,573.867,570.318,0.0
55954.0,STARLINK-5892,PAYLOAD,2023-11-23 21:54:30,14.98324536,0.0002579,70.0004,214.2034,262.6657,97.4209,-5.7845e-05,-7.83e-06,0.0,0 STARLINK-5892,1 55954U 23037AS  23327.91285316 -.00000783  00000-0 -57845-4 0  9998,2 55954  70.0004 214.2034 0002579 262.6657  97.4209 14.98324536 39136,6950.21,96.107,573.867,570.282,0.0
55954.0,STARLINK-5892,PAYLOAD,2023-11-24 04:19:02,14.98328197,0.0002822,70.0004,213.5301,273.2708,86.8128,-5.8594e-05,-7.92e-06,0.0,0 STARLINK-5892,1 55954U 23037AS  23328.17989272 -.00000792  00000-0 -58594-4 0  9991,2 55954  70.0004 213.5301 0002822 273.2708  86.8128 14.98328197 39174,6950.198,96.107,574.025,570.102,0.0
55954.0,STARLINK-5892,PAYLOAD,2023-11-24 20:20:23,14.98327691,0.000316,70.0001,211.8467,279.6295,80.4507,5.8795e-05,6.09e-06,0.0,0 STARLINK-5892,1 55954U 23037AS  23328.84749049  .00000609  00000-0  58795-4 0  9999,2 55954  70.0001 211.8467 0003160 279.6295  80.4507 14.98327691 39272,6950.2,96.107,574.261,569.869,0.0
55954.0,STARLINK-5892,PAYLOAD,2023-11-25 02:44:54,14.98333392,0.000286,70.0003,211.1735,276.1594,83.9239,0.00012281,1.373e-05,0.0,0 STARLINK-5892,1 55954U 23037AS  23329.11452509  .00001373  00000-0  12281-3 0  9990,2 55954  70.0003 211.1735 0002860 276.1594  83.9239 14.98333392 39652,6950.182,96.107,574.035,570.06,0.0
55954.0,STARLINK-5892,PAYLOAD,2023-11-25 21:58:31,14.98333326,0.0002608,70.0006,209.1544,266.733,93.3531,0.0001246,1.394e-05,0.0,0 STARLINK-5892,1 55954U 23037AS  23329.91564338  .00001394  00000-0  12460-3 0  9994,2 55954  70.0006 209.1544 0002608 266.7330  93.3531 14.98333326 39436,6950.183,96.107,573.86,570.235,0.0
55954.0,STARLINK-5892,PAYLOAD,2023-11-26 01:10:47,14.98337692,0.0002346,70.0012,208.819,244.3472,115.7445,0.00018589,2.126e-05,0.0,0 STARLINK-5892,1 55954U 23037AS  23330.04915815  .00002126  00000-0  18589-3 0  9992,2 55954  70.0012 208.8190 0002346 244.3472 115.7445 14.98337692 39459,6950.169,96.107,573.665,570.404,0.0
55954.0,STARLINK-5892,PAYLOAD,2023-11-26 18:48:17,14.9832518,0.0002968,70.0004,206.9667,276.4067,83.6754,-0.00012164,-1.544e-05,0.0,0 STARLINK-5892,1 55954U 23037AS  23330.78353371 -.00001544  00000-0 -12164-3 0  9994,2 55954  70.0004 206.9667 0002968 276.4067  83.6754 14.98325180 39909,6950.208,96.107,574.136,570.01,0.0
55954.0,STARLINK-5892,PAYLOAD,2023-11-26 22:00:33,14.9833056,0.0002305,70.0022,206.632,274.6525,85.4371,5.0844e-06,-3.2e-07,0.0,0 STARLINK-5892,1 55954U 23037AS  23330.91705030 -.00000032  00000-0  50844-5 0  9991,2 55954  70.0022 206.6320 0002305 274.6525  85.4371 14.98330560 39583,6950.191,96.107,573.658,570.454,0.0
55954.0,STARLINK-5892,PAYLOAD,2023-11-27 02:48:57,14.98320983,0.0002481,70.0008,206.1254,262.5271,97.5606,-0.00016425,-2.052e-05,0.0,0 STARLINK-5892,1 55954U 23037AS  23331.11733779 -.00002052  00000-0 -16425-3 0  9995,2 55954  70.0008 206.1254 0002481 262.5271  97.5606 14.98320983 39614,6950.221,96.108,573.81,570.361,0.0
55954.0,STARLINK-5892,PAYLOAD,2023-11-27 18:50:18,14.98330956,0.0002755,69.9996,204.44,268.4853,91.599,-8.8112e-05,-1.144e-05,0.0,0 STARLINK-5892,1 55954U 23037AS  23331.78493070 -.00001144  00000-0 -88112-4 0  9999,2 55954  69.9996 204.4400 0002755 268.4853  91.5990 14.98330956 40057,6950.19,96.107,573.97,570.14,0.0
55954.0,STARLINK-5892,PAYLOAD,2023-11-27 22:02:34,14.9833022,0.0002194,70.0016,204.1058,245.6659,114.4272,-5.7474e-05,-7.79e-06,0.0,0 STARLINK-5892,1 55954U 23037AS  23331.91845063 -.00000779  00000-0 -57474-4 0  9997,2 55954  70.0016 204.1058 0002194 245.6659 114.4272 14.98330220 39732,6950.192,96.107,573.582,570.532,0.0
55954.0,STARLINK-5892,PAYLOAD,2023-11-28 01:14:49,14.98334311,0.0002703,70.0001,203.7673,269.5225,90.5625,-3.4268e-05,-5.02e-06,0.0,0 STARLINK-5892,1 55954U 23037AS  23332.05196702 -.00000502  00000-0 -34268-4 0  9992,2 55954  70.0001 203.7673 0002703 269.5225  90.5625 14.98334311 39757,6950.18,96.107,573.923,570.166,0.0
55954.0,STARLINK-5892,PAYLOAD,2023-11-28 20:28:26,14.98327063,0.0002737,70.0001,201.7479,271.3794,88.7051,0.00012186,1.361e-05,0.0,0 STARLINK-5892,1 55954U 23037AS  23332.85308612  .00001361  00000-0  12186-3 0  9991,2 55954  70.0001 201.7479 0002737 271.3794  88.7051 14.98327063 40219,6950.202,96.107,573.969,570.165,0.0
55954.0,STARLINK-5892,PAYLOAD,2023-11-28 22:04:34,14.98323953,0.0002962,69.9999,201.5789,273.4979,86.5841,0.00017635,2.011e-05,0.0,0 STARLINK-5892,1 55954U 23037AS  23332.91984662  .00002011  00000-0  17635-3 0  9990,2 55954  69.9999 201.5789 0002962 273.4979  86.5841 14.98323953 39880,6950.212,96.107,574.135,570.018,0.0
55954.0,STARLINK-5892,PAYLOAD,2023-11-29 01:16:50,14.98332156,0.0002766,70.0,201.2425,274.4761,85.6082,0.00011994,1.338e-05,0.0,0 STARLINK-5892,1 55954U 23037AS  23333.05336310  .00001338  00000-0  11994-3 0  9990,2 55954  70.0000 201.2425 0002766 274.4761  85.6082 14.98332156 39907,6950.186,96.107,573.974,570.129,0.0
55954.0,STARLINK-5892,PAYLOAD,2023-11-30 01:18:51,14.98333161,0.0002714,70.0005,198.7177,275.516,84.569,4.0438e-05,3.9e-06,0.0,0 STARLINK-5892,1 55954U 23037AS  23334.05476458  .00000390  00000-0  40438-4 0  9992,2 55954  70.0005 198.7177 0002714 275.5160  84.5690 14.98333161 40399,6950.183,96.107,573.934,570.162,0.0
55954.0,STARLINK-5892,PAYLOAD,2023-11-30 18:56:18,14.98350013,0.0003826,69.9985,196.8636,282.3998,77.6732,0.00010604,1.173e-05,0.0,0 STARLINK-5892,1 55954U 23037AS  23334.78910339  .00001173  00000-0  10604-3 0  9994,2 55954  69.9985 196.8636 0003826 282.3998  77.6732 14.98350013 40500,6950.131,96.106,574.655,569.337,0.0
55954.0,STARLINK-5892,PAYLOAD,2023-12-01 01:20:52,14.98325205,0.0002757,70.0002,196.1931,267.4154,92.669,-0.00015317,-1.92e-05,0.0,0 STARLINK-5892,1 55954U 23037AS  23335.05616569 -.00001920  00000-0 -15317-3 0  9991,2 55954  70.0002 196.1931 0002757 267.4154  92.6690 14.98325205 40543,6950.208,96.107,573.989,570.157,0.0
55954.0,STARLINK-5892,PAYLOAD,2023-12-01 22:10:36,14.9833485,0.0002575,69.9997,194.0051,263.1851,96.9015,-0.00010758,-1.376e-05,0.0,0 STARLINK-5892,1 55954U 23037AS  23335.92403865 -.00001376  00000-0 -10758-3 0  9999,2 55954  69.9997 194.0051 0002575 263.1851  96.9015 14.98334850 40339,6950.178,96.107,573.833,570.253,0.0
